BEIDOU 16               
1 38953U 12059A   22231.51867201 -.00000183  00000+0  00000+0 0  9996
2 38953   2.1416  84.1308 0009333 303.5788 210.9345  1.00271189 35898
LUCH 5B                 
1 38977U 12061A   22231.35520138 -.00000143  00000+0  00000+0 0  9998
2 38977   7.4241  62.1376 0005932  73.3210 303.8201  1.00272245 36160
COSMOS 2485 [GLONASS-M] 
1 39155U 13019A   22231.24353958 -.00000038  00000+0  00000+0 0  9996
2 39155  64.8179 120.7211 0021757 232.2411 323.9644  2.13102058 72496
NAVSTAR 68 (USA 242)    
1 39166U 13023A   22230.16857915 -.00000101  00000+0  00000+0 0  9996
2 39166  55.6535 325.3946 0103964  38.6190 322.1553  2.00565568 67829
IRNSS-1A                
1 39199U 13034A   22225.68521743  .00000065  00000+0  00000+0 0  9990
2 39199  32.5507  84.5071 0019136 178.7694   0.4770  1.00272368 33296
NAVSTAR 69 (USA 248)    
1 39533U 14008A   22231.16715356  .00000057  00000+0  00000+0 0  9990
2 39533  53.6217 206.2948 0060748 209.8389 149.7983  2.00557045 61640
ASTRA 5B                
1 39617U 14011B   22231.29294031  .00000149  00000+0  00000+0 0  9995
2 39617   0.0578 302.5842 0004410 221.8918 300.1158  1.00275776 30659
COSMOS 2492 [GLONASS-M] 
1 39620U 14012A   22231.42370275 -.00000084  00000+0  00000+0 0  9999
2 39620  65.8383   1.0328 0010748 327.5538  41.2805  2.13103228 65454
IRNSS-1B                
1 39635U 14017A   22225.68521743  .00000103  00000+0  00000+0 0  9990
2 39635  28.6290 264.1420 0021587 191.9483 167.7247  1.00276046 30713
LUCH 5V                 
1 39727U 14023A   22231.52085203 -.00000274  00000+0  00000+0 0  9995
2 39727   1.6429  76.2467 0003665  93.8961  79.8570  1.00268422 30341
NAVSTAR 70 (USA 251)    
1 39741U 14026A   22229.45485855 -.00000088  00000+0  00000+0 0  9993
2 39741  56.5946  25.8567 0026237 305.6385  54.1277  2.00551691 60465
COSMOS 2500 [GLONASS-M] 
1 40001U 14032A   22231.53222534 -.00000085  00000+0  00000+0 0  9993
2 40001  65.7764   0.8849 0007038 183.3066 127.2755  2.13102362 63666
NAVSTAR 71 (USA 256)    
1 40105U 14045A   22231.03293371 -.00000031  00000+0  00000+0 0  9995
2 40105  54.7036 144.3063 0021538 110.9976 249.2544  2.00551532 58039
GSAT0201 (GALILEO 5)    
1 40128U 14050A   22230.19429089 -.00000126  00000+0  00000+0 0  9994
2 40128  50.2415 329.8234 1623503 126.2997 249.8209  1.85519100 52361
GSAT0202 (GALILEO 6)    
1 40129U 14050B   22231.53307162 -.00000123  00000+0  00000+0 0  9998
2 40129  50.2645 328.8324 1620471 127.1609 248.7762  1.85519717 54556
IRNSS-1C                
1 40269U 14061A   22231.51858481 -.00000171  00000+0  00000+0 0  9991
2 40269   3.0918 126.2416 0020699   2.7248 108.6411  1.00275142 28671
NAVSTAR 72 (USA 258)    
1 40294U 14068A   22230.90562169 -.00000055  00000+0  00000+0 0  9994
2 40294  55.8621  85.4678 0042724  57.6427 302.8419  2.00575998 57167
